{"type": "FeatureCollection", "features": [ {"type": "Feature", "properties": {"norad_id": 30829, "name": "FENGYUN 1C DEB", "group": "fengyun-1c-debris", "lat": 4.754919512470974, "lon": -12.626213028617341, "alt_km": 851.8710635060643, "timestamp": "2025-12-21T16:47:55.017228+00:00", "meta": {"OBJECT_NAME": "FENGYUN 1C DEB", "OBJECT_ID": "1999-025AVP", "EPOCH": "2025-12-21T04:50:35.348064", "MEAN_MOTION": 14.0866618, "ECCENTRICITY": 0.00351096, "INCLINATION": 98.7774, "RA_OF_ASC_NODE": 347.6253, "ARG_OF_PERICENTER": 310.4409, "MEAN_ANOMALY": 49.37, "EPHEMERIS_TYPE": 0, "CLASSIFICATION_TYPE": "U", "NORAD_CAT_ID": 30829, "ELEMENT_SET_NO": 999, "REV_AT_EPOCH": 96552, "BSTAR": 0.0003913399, "MEAN_MOTION_DOT": 6.34e-06, "MEAN_MOTION_DDOT": 0}, "tle": {"line1": "1 30829U 99025AVP 25355.20179801  .00000634  00000+0  39134-3 0  9990", "line2": "2 30829  98.7774 347.6253 0035109 310.4409  49.3700 14.08666180965525"}}, "geometry": {"type": "Point", "coordinates": [-12.626213028617341, 4.754919512470974]}}, {"type": "Feature", "properties": {"norad_id": 30830, "name": "FENGYUN 1C DEB", "group": "fengyun-1c-debris", "lat": -26.842042860067167, "lon": -11.674890872603186, "alt_km": 879.4643137201656, "timestamp": "2025-12-21T16:47:55.017238+00:00", "meta": {"OBJECT_NAME": "FENGYUN 1C DEB", "OBJECT_ID": "1999-025AVQ", "EPOCH": "2025-12-19T19:35:02.056128", "MEAN_MOTION": 14.1223591, "ECCENTRICITY": 0.00310336, "INCLINATION": 98.7296, "RA_OF_ASC_NODE": 342.0311, "ARG_OF_PERICENTER": 168.5887, "MEAN_ANOMALY": 311.548, "EPHEMERIS_TYPE": 0, "CLASSIFICATION_TYPE": "U", "NORAD_CAT_ID": 30830, "ELEMENT_SET_NO": 999, "REV_AT_EPOCH": 96699, "BSTAR": 0.0001833696, "MEAN_MOTION_DOT": 2.96e-06, "MEAN_MOTION_DDOT": 0}, "tle": {"line1": "1 30830U 99025AVQ 25353.81599602  .00000296  00000+0  18337-3 0  9998", "line2": "2 30830  98.7296 342.0311 0031033 168.5887 311.5480 14.12235910966993"}}, "geometry": {"type": "Point", "coordinates": [-11.674890872603186, -26.842042860067167]}}, {"type": "Feature", "properties": {"norad_id": 30831, "name": "FENGYUN 1C DEB", "group": "fengyun-1c-debris", "lat": 62.82101811870273, "lon": 130.44641692187977, "alt_km": 759.5734068191796, "timestamp": "2025-12-21T16:47:55.017248+00:00", "meta": {"OBJECT_NAME": "FENGYUN 1C DEB", "OBJECT_ID": "1999-025AVR", "EPOCH": "2025-12-19T04:05:43.603584", "MEAN_MOTION": 14.31100887, "ECCENTRICITY": 0.00553007, "INCLINATION": 99.3283, "RA_OF_ASC_NODE": 146.4032, "ARG_OF_PERICENTER": 15.6425, "MEAN_ANOMALY": 344.6449, "EPHEMERIS_TYPE": 0, "CLASSIFICATION_TYPE": "U", "NORAD_CAT_ID": 30831, "ELEMENT_SET_NO": 999, "REV_AT_EPOCH": 65342, "BSTAR": 0.00031120518, "MEAN_MOTION_DOT": 7.84e-06, "MEAN_MOTION_DDOT": 0}, "tle": {"line1": "1 30831U 99025AVR 25353.17064356  .00000784  00000+0  31121-3 0  9999", "line2": "2 30831  99.3283 146.4032 0055300  15.6425 344.6449 14.31100887653424"}}, "geometry": {"type": "Point", "coordinates": [130.44641692187977, 62.82101811870273]}}, {"type": "Feature", "properties": {"norad_id": 30833, "name": "FENGYUN 1C DEB", "group": "fengyun-1c-debris", "lat": -54.36537736647553, "lon": 156.91264345351254, "alt_km": 829.7392396597224, "timestamp": "2025-12-21T16:47:55.017258+00:00", "meta": {"OBJECT_NAME": "FENGYUN 1C DEB", "OBJECT_ID": "1999-025AVT", "EPOCH": "2025-12-21T03:35:45.711168", "MEAN_MOTION": 14.26778455, "ECCENTRICITY": 0.00330935, "INCLINATION": 99.8454, "RA_OF_ASC_NODE": 142.275, "ARG_OF_PERICENTER": 157.3775, "MEAN_ANOMALY": 202.8869, "EPHEMERIS_TYPE": 0, "CLASSIFICATION_TYPE": "U", "NORAD_CAT_ID": 30833, "ELEMENT_SET_NO": 999, "REV_AT_EPOCH": 64531, "BSTAR": 0.00040027832, "MEAN_MOTION_DOT": 9.21e-06, "MEAN_MOTION_DDOT": 0}, "tle": {"line1": "1 30833U 99025AVT 25355.14983462  .00000921  00000+0  40028-3 0  9997", "line2": "2 30833  99.8454 142.2750 0033093 157.3775 202.8869 14.26778455645315"}}, "geometry": {"type": "Point", "coordinates": [156.91264345351254, -54.36537736647553]}}, {"type": "Feature", "properties": {"norad_id": 30836, "name": "FENGYUN 1C DEB", "group": "fengyun-1c-debris", "lat": -23.749677233719193, "lon": 32.021636108097795, "alt_km": 866.7686286419375, "timestamp": "2025-12-21T16:47:55.017268+00:00", "meta": {"OBJECT_NAME": "FENGYUN 1C DEB", "OBJECT_ID": "1999-025AVW", "EPOCH": "2025-12-21T01:36:21.545856", "MEAN_MOTION": 14.11944491, "ECCENTRICITY": 0.00260217, "INCLINATION": 98.7439, "RA_OF_ASC_NODE": 27.5216, "ARG_OF_PERICENTER": 220.4586, "MEAN_ANOMALY": 139.4651, "EPHEMERIS_TYPE": 0, "CLASSIFICATION_TYPE": "U", "NORAD_CAT_ID": 30836, "ELEMENT_SET_NO": 999, "REV_AT_EPOCH": 62121, "BSTAR": 0.00026112112, "MEAN_MOTION_DOT": 4.36e-06, "MEAN_MOTION_DDOT": 0}, "tle": {"line1": "1 30836U 99025AVW 25355.06691604  .00000436  00000+0  26112-3 0  9994", "line2": "2 30836  98.7439  27.5216 0026021 220.4586 139.4651 14.11944491621212"}}, "geometry": {"type": "Point", "coordinates": [32.021636108097795, -23.749677233719193]}}, {"type": "Feature", "properties": {"norad_id": 30837, "name": "FENGYUN 1C DEB", "group": "fengyun-1c-debris", "lat": 75.01004299859312, "lon": -163.53397082587855, "alt_km": 812.8737250177101, "timestamp": "2025-12-21T16:47:55.017278+00:00", "meta": {"OBJECT_NAME": "FENGYUN 1C DEB", "OBJECT_ID": "1999-025AVX", "EPOCH": "2025-12-20T21:57:05.218272", "MEAN_MOTION": 14.14531117, "ECCENTRICITY": 0.0033239, "INCLINATION": 98.6791, "RA_OF_ASC_NODE": 340.9211, "ARG_OF_PERICENTER": 110.6505, "MEAN_ANOMALY": 314.8903, "EPHEMERIS_TYPE": 0, "CLASSIFICATION_TYPE": "U", "NORAD_CAT_ID": 30837, "ELEMENT_SET_NO": 999, "REV_AT_EPOCH": 96934, "BSTAR": 0.0002343, "MEAN_MOTION_DOT": 4.09e-06, "MEAN_MOTION_DDOT": 0}, "tle": {"line1": "1 30837U 99025AVX 25354.91464373  .00000409  00000+0  23430-3 0  9999", "line2": "2 30837  98.6791 340.9211 0033239 110.6505 314.8903 14.14531117969348"}}, "geometry": {"type": "Point", "coordinates": [-163.53397082587855, 75.01004299859312]}}, {"type": "Feature", "properties": {"norad_id": 30838, "name": "FENGYUN 1C DEB", "group": "fengyun-1c-debris", "lat": 76.12624187829397, "lon": 130.34059199957994, "alt_km": 703.8067574169854, "timestamp": "2025-12-21T16:47:55.017288+00:00", "meta": {"OBJECT_NAME": "FENGYUN 1C DEB", "OBJECT_ID": "1999-025AVY", "EPOCH": "2025-12-21T11:21:38.844864", "MEAN_MOTION": 14.47870371, "ECCENTRICITY": 0.0034823, "INCLINATION": 99.0435, "RA_OF_ASC_NODE": 269.9452, "ARG_OF_PERICENTER": 130.7911, "MEAN_ANOMALY": 229.631, "EPHEMERIS_TYPE": 0, "CLASSIFICATION_TYPE": "U", "NORAD_CAT_ID": 30838, "ELEMENT_SET_NO": 999, "REV_AT_EPOCH": 97440, "BSTAR": 0.0017956, "MEAN_MOTION_DOT": 6.656e-05, "MEAN_MOTION_DDOT": 0}, "tle": {"line1": "1 30838U 99025AVY 25355.47336626  .00006656  00000+0  17956-2 0  9996", "line2": "2 30838  99.0435 269.9452 0034823 130.7911 229.6310 14.47870371974402"}}, "geometry": {"type": "Point", "coordinates": [130.34059199957994, 76.12624187829397]}}, {"type": "Feature", "properties": {"norad_id": 30840, "name": "FENGYUN 1C DEB", "group": "fengyun-1c-debris", "lat": -66.05288851315375, "lon": 25.294534240474814, "alt_km": 595.6614288178043, "timestamp": "2025-12-21T16:47:55.017300+00:00", "meta": {"OBJECT_NAME": "FENGYUN 1C DEB", "OBJECT_ID": "1999-025AWA", "EPOCH": "2025-12-21T12:09:51.033888", "MEAN_MOTION": 14.61187475, "ECCENTRICITY": 0.0216899, "INCLINATION": 98.022, "RA_OF_ASC_NODE": 6.5931, "ARG_OF_PERICENTER": 343.0768, "MEAN_ANOMALY": 16.3275, "EPHEMERIS_TYPE": 0, "CLASSIFICATION_TYPE": "U", "NORAD_CAT_ID": 30840, "ELEMENT_SET_NO": 999, "REV_AT_EPOCH": 73259, "BSTAR": 0.00061723, "MEAN_MOTION_DOT": 4.193e-05, "MEAN_MOTION_DDOT": 0}, "tle": {"line1": "1 30840U 99025AWA 25355.50684067  .00004193  00000+0  61723-3 0  9994", "line2": "2 30840  98.0220   6.5931 0216899 343.0768  16.3275 14.61187475732592"}}, "geometry": {"type": "Point", "coordinates": [25.294534240474814, -66.05288851315375]}}, {"type": "Feature", "properties": {"norad_id": 30843, "name": "FENGYUN 1C DEB", "group": "fengyun-1c-debris", "lat": -24.59482271395794, "lon": -116.2808343977984, "alt_km": 761.5221849533527, "timestamp": "2025-12-21T16:47:55.017310+00:00", "meta": {"OBJECT_NAME": "FENGYUN 1C DEB", "OBJECT_ID": "1999-025AWD", "EPOCH": "2025-12-21T10:54:49.935168", "MEAN_MOTION": 14.52487978, "ECCENTRICITY": 0.0148936, "INCLINATION": 98.8414, "RA_OF_ASC_NODE": 67.5464, "ARG_OF_PERICENTER": 93.4127, "MEAN_ANOMALY": 268.4116, "EPHEMERIS_TYPE": 0, "CLASSIFICATION_TYPE": "U", "NORAD_CAT_ID": 30843, "ELEMENT_SET_NO": 999, "REV_AT_EPOCH": 99451, "BSTAR": 0.00011172, "MEAN_MOTION_DOT": 4.7e-06, "MEAN_MOTION_DDOT": 0}, "tle": {"line1": "1 30843U 99025AWD 25355.45474462  .00000470  00000+0  11172-3 0  9994", "line2": "2 30843  98.8414  67.5464 0148936  93.4127 268.4116 14.52487978994514"}}, "geometry": {"type": "Point", "coordinates": [-116.2808343977984, -24.59482271395794]}}, {"type": "Feature", "properties": {"norad_id": 30845, "name": "FENGYUN 1C DEB", "group": "fengyun-1c-debris", "lat": -32.26505897775453, "lon": 169.88347346882918, "alt_km": 862.4654506961997, "timestamp": "2025-12-21T16:47:55.017321+00:00", "meta": {"OBJECT_NAME": "FENGYUN 1C DEB", "OBJECT_ID": "1999-025AWF", "EPOCH": "2025-12-21T11:16:43.592736", "MEAN_MOTION": 13.76864385, "ECCENTRICITY": 0.0192099, "INCLINATION": 98.379, "RA_OF_ASC_NODE": 355.0195, "ARG_OF_PERICENTER": 246.7148, "MEAN_ANOMALY": 267.6524, "EPHEMERIS_TYPE": 0, "CLASSIFICATION_TYPE": "U", "NORAD_CAT_ID": 30845, "ELEMENT_SET_NO": 999, "REV_AT_EPOCH": 94363, "BSTAR": 0.00028019, "MEAN_MOTION_DOT": 2.78e-06, "MEAN_MOTION_DDOT": 0}, "tle": {"line1": "1 30845U 99025AWF 25355.46994899  .00000278  00000+0  28019-3 0  9992", "line2": "2 30845  98.3790 355.0195 0192099 246.7148 267.6524 13.76864385943636"}}, "geometry": {"type": "Point", "coordinates": [169.88347346882918, -32.26505897775453]}}]}